start=new Date('2023-06-30T00:00:00.000Z').valueOf();
sats=[{"COUNTRY_CODE":"US","LAUNCH_DATE":"2022-01-06","EPHEMERIS_TYPE":"0","RA_OF_ASC_NODE":"267.4191","ELEMENT_SET_NO":"999","OBJECT_ID":"2022-001X","TLE_LINE1":"1 50824U 22001X   23180.47830319 -.00001167  00000-0 -55275-4 0  9998","EPOCH":"2023-06-29T11:28:45.395616","REF_FRAME":"TEME","CENTER_NAME":"EARTH","SITE":"AFETR","TLE_LINE2":"2 50824  53.2175 267.4191 0000793 101.9395 258.1686 15.08838377 83097","RCS_SIZE":"LARGE","MEAN_ELEMENT_THEORY":"SGP4","PERIAPSIS":"539.202","MEAN_ANOMALY":"258.1686","OBJECT_NAME":"STARLINK-3340","DECAY_DATE":null,"MEAN_MOTION":"15.08838377","MEAN_MOTION_DDOT":"0.0000000000000","FILE":"3945765","ARG_OF_PERICENTER":"101.9395","OBJECT_TYPE":"PAYLOAD","TIME_SYSTEM":"UTC","PERIOD":"95.438","GP_ID":"234625241","BSTAR":"-0.00005527500000","CLASSIFICATION_TYPE":"U","APOAPSIS":"540.299","REV_AT_EPOCH":"8309","NORAD_CAT_ID":"50824","INCLINATION":"53.2175","MEAN_MOTION_DOT":"-0.00001167","ECCENTRICITY":"0.00007930","SEMIMAJOR_AXIS":"6917.885"},{"PERIOD":"95.438","TIME_SYSTEM":"UTC","OBJECT_TYPE":"PAYLOAD","ARG_OF_PERICENTER":"88.0219","FILE":"3945765","MEAN_MOTION_DDOT":"0.0000000000000","SEMIMAJOR_AXIS":"6917.883","ECCENTRICITY":"0.00007950","MEAN_MOTION_DOT":"-0.00000875","INCLINATION":"53.2173","NORAD_CAT_ID":"50825","REV_AT_EPOCH":"8309","APOAPSIS":"540.298","CLASSIFICATION_TYPE":"U","BSTAR":"-0.00003689100000","GP_ID":"234625606","CENTER_NAME":"EARTH","REF_FRAME":"TEME","EPOCH":"2023-06-29T11:39:21.326400","TLE_LINE1":"1 50825U 22001Y   23180.48566350 -.00000875  00000-0 -36891-4 0  9999","OBJECT_ID":"2022-001Y","ELEMENT_SET_NO":"999","EPHEMERIS_TYPE":"0","LAUNCH_DATE":"2022-01-06","RA_OF_ASC_NODE":"267.3852","COUNTRY_CODE":"US","MEAN_MOTION":"15.08839257","DECAY_DATE":null,"OBJECT_NAME":"STARLINK-3332","MEAN_ANOMALY":"272.0864","PERIAPSIS":"539.198","MEAN_ELEMENT_THEORY":"SGP4","RCS_SIZE":"LARGE","TLE_LINE2":"2 50825  53.2173 267.3852 0000795  88.0219 272.0864 15.08839257 83092","SITE":"AFETR"},{"REF_FRAME":"TEME","CENTER_NAME":"EARTH","TLE_LINE1":"1 50826U 22001Z   23180.46358218  .00001070  00000-0  85314-4 0  9990","EPOCH":"2023-06-29T11:07:33.500352","LAUNCH_DATE":"2022-01-06","EPHEMERIS_TYPE":"0","RA_OF_ASC_NODE":"267.4809","OBJECT_ID":"2022-001Z","ELEMENT_SET_NO":"999","COUNTRY_CODE":"US","DECAY_DATE":null,"MEAN_MOTION":"15.08843045","PERIAPSIS":"539.079","MEAN_ANOMALY":"277.0484","OBJECT_NAME":"STARLINK-3337","TLE_LINE2":"2 50826  53.2158 267.4809 0000950  83.0617 277.0484 15.08843045 83104","SITE":"AFETR","RCS_SIZE":"LARGE","MEAN_ELEMENT_THEORY":"SGP4","PERIOD":"95.437","ARG_OF_PERICENTER":"83.0617","OBJECT_TYPE":"PAYLOAD","TIME_SYSTEM":"UTC","MEAN_MOTION_DDOT":"0.0000000000000","FILE":"3945765","MEAN_MOTION_DOT":"0.00001070","INCLINATION":"53.2158","ECCENTRICITY":"0.00009500","SEMIMAJOR_AXIS":"6917.871","APOAPSIS":"540.393","REV_AT_EPOCH":"8310","NORAD_CAT_ID":"50826","CLASSIFICATION_TYPE":"U","GP_ID":"234625604","BSTAR":"0.00008531400000"},{"EPHEMERIS_TYPE":"0","LAUNCH_DATE":"2022-01-06","RA_OF_ASC_NODE":"271.4995","ELEMENT_SET_NO":"999","OBJECT_ID":"2022-001AA","COUNTRY_CODE":"US","REF_FRAME":"TEME","CENTER_NAME":"EARTH","EPOCH":"2023-06-28T13:39:51.196320","TLE_LINE1":"1 50827U 22001AA  23179.56934255  .00002052  00000-0  14699-3 0  9999","OBJECT_NAME":"STARLINK-3329","PERIAPSIS":"539.103","MEAN_ANOMALY":"260.4805","SITE":"AFETR","TLE_LINE2":"2 50827  53.2163 271.4995 0000921  99.6291 260.4805 15.08841760 82958","MEAN_ELEMENT_THEORY":"SGP4","RCS_SIZE":"LARGE","MEAN_MOTION":"15.08841760","DECAY_DATE":null,"FILE":"3945172","MEAN_MOTION_DDOT":"0.0000000000000","PERIOD":"95.437","ARG_OF_PERICENTER":"99.6291","TIME_SYSTEM":"UTC","OBJECT_TYPE":"PAYLOAD","CLASSIFICATION_TYPE":"U","GP_ID":"234610292","BSTAR":"0.00014699000000","ECCENTRICITY":"0.00009210","INCLINATION":"53.2163","MEAN_MOTION_DOT":"0.00002052","SEMIMAJOR_AXIS":"6917.875","APOAPSIS":"540.377","NORAD_CAT_ID":"50827","REV_AT_EPOCH":"8295"},{"PERIOD":"95.437","OBJECT_TYPE":"PAYLOAD","TIME_SYSTEM":"UTC","ARG_OF_PERICENTER":"98.6764","FILE":"3945536","MEAN_MOTION_DDOT":"0.0000000000000","SEMIMAJOR_AXIS":"6917.873","ECCENTRICITY":"0.00010030","INCLINATION":"53.2175","MEAN_MOTION_DOT":"0.00000811","NORAD_CAT_ID":"50828","REV_AT_EPOCH":"8302","APOAPSIS":"540.432","CLASSIFICATION_TYPE":"U","BSTAR":"0.00006902400000","GP_ID":"234619509","CENTER_NAME":"EARTH","REF_FRAME":"TEME","EPOCH":"2023-06-28T22:52:19.578432","TLE_LINE1":"1 50828U 22001AB  23179.95300438  .00000811  00000-0  69024-4 0  9997","OBJECT_ID":"2022-001AB","ELEMENT_SET_NO":"999","LAUNCH_DATE":"2022-01-06","EPHEMERIS_TYPE":"0","RA_OF_ASC_NODE":"269.6668","COUNTRY_CODE":"US","MEAN_MOTION":"15.08842418","DECAY_DATE":null,"OBJECT_NAME":"STARLINK-3290","MEAN_ANOMALY":"261.4342","PERIAPSIS":"539.044","MEAN_ELEMENT_THEORY":"SGP4","RCS_SIZE":"LARGE","TLE_LINE2":"2 50828  53.2175 269.6668 0001003  98.6764 261.4342 15.08842418 83021","SITE":"AFETR"},{"SEMIMAJOR_AXIS":"6917.868","MEAN_MOTION_DOT":"0.00000987","INCLINATION":"53.2168","ECCENTRICITY":"0.00009750","REV_AT_EPOCH":"8311","NORAD_CAT_ID":"50829","APOAPSIS":"540.407","CLASSIFICATION_TYPE":"U","BSTAR":"0.00008008700000","GP_ID":"234631796","PERIOD":"95.437","OBJECT_TYPE":"PAYLOAD","TIME_SYSTEM":"UTC","ARG_OF_PERICENTER":"89.3690","MEAN_MOTION_DDOT":"0.0000000000000","FILE":"3946026","DECAY_DATE":null,"MEAN_MOTION":"15.08844148","MEAN_ANOMALY":"270.7414","PERIAPSIS":"539.058","OBJECT_NAME":"STARLINK-3294","RCS_SIZE":"LARGE","MEAN_ELEMENT_THEORY":"SGP4","SITE":"AFETR","TLE_LINE2":"2 50829  53.2168 266.7081 0000975  89.3690 270.7414 15.08844148 83118","CENTER_NAME":"EARTH","REF_FRAME":"TEME","TLE_LINE1":"1 50829U 22001AC  23180.63654224  .00000987  00000-0  80087-4 0  9996","EPOCH":"2023-06-29T15:16:37.249536","OBJECT_ID":"2022-001AC","ELEMENT_SET_NO":"999","LAUNCH_DATE":"2022-01-06","RA_OF_ASC_NODE":"266.7081","EPHEMERIS_TYPE":"0","COUNTRY_CODE":"US"},{"FILE":"3945767","MEAN_MOTION_DDOT":"0.0000000000000","ARG_OF_PERICENTER":"120.9656","TIME_SYSTEM":"UTC","OBJECT_TYPE":"PAYLOAD","PERIOD":"95.437","GP_ID":"234625268","BSTAR":"0.00010093000000","CLASSIFICATION_TYPE":"U","APOAPSIS":"540.778","NORAD_CAT_ID":"50830","REV_AT_EPOCH":"8295","ECCENTRICITY":"0.00015000","INCLINATION":"53.2150","MEAN_MOTION_DOT":"0.00001319","SEMIMAJOR_AXIS":"6917.875","COUNTRY_CODE":"US","EPHEMERIS_TYPE":"0","LAUNCH_DATE":"2022-01-06","RA_OF_ASC_NODE":"277.5212","OBJECT_ID":"2022-001AD","ELEMENT_SET_NO":"999","EPOCH":"2023-06-29T10:55:38.053920","TLE_LINE1":"1 50830U 22001AD  23180.45530155  .00001319  00000-0  10093-3 0  9993","REF_FRAME":"TEME","CENTER_NAME":"EARTH","SITE":"AFETR","TLE_LINE2":"2 50830  53.2150 277.5212 0001500 120.9656 239.1483 15.08841668 82956","MEAN_ELEMENT_THEORY":"SGP4","RCS_SIZE":"LARGE","OBJECT_NAME":"STARLINK-3278","MEAN_ANOMALY":"239.1483","PERIAPSIS":"538.703","MEAN_MOTION":"15.08841668","DECAY_DATE":null},{"BSTAR":"0.00018314000000","GP_ID":"234625271","CLASSIFICATION_TYPE":"U","NORAD_CAT_ID":"50831","REV_AT_EPOCH":"8309","APOAPSIS":"540.649","SEMIMAJOR_AXIS":"6917.860","ECCENTRICITY":"0.00013360","INCLINATION":"53.2166","MEAN_MOTION_DOT":"0.00002628","FILE":"3945767","MEAN_MOTION_DDOT":"0.0000000000000","TIME_SYSTEM":"UTC","OBJECT_TYPE":"PAYLOAD","ARG_OF_PERICENTER":"113.3824","PERIOD":"95.437","MEAN_ELEMENT_THEORY":"SGP4","RCS_SIZE":"LARGE","TLE_LINE2":"2 50831  53.2166 267.5289 0001336 113.3824 246.7309 15.08846796 83091","SITE":"AFETR","OBJECT_NAME":"STARLINK-3299","MEAN_ANOMALY":"246.7309","PERIAPSIS":"538.800","MEAN_MOTION":"15.08846796","DECAY_DATE":null,"COUNTRY_CODE":"US","ELEMENT_SET_NO":"999","OBJECT_ID":"2022-001AE","RA_OF_ASC_NODE":"267.5289","LAUNCH_DATE":"2022-01-06","EPHEMERIS_TYPE":"0","EPOCH":"2023-06-29T11:12:51.922368","TLE_LINE1":"1 50831U 22001AE  23180.46726762  .00002628  00000-0  18314-3 0  9994","CENTER_NAME":"EARTH","REF_FRAME":"TEME"},{"CLASSIFICATION_TYPE":"U","BSTAR":"0.00020163000000","GP_ID":"234631809","SEMIMAJOR_AXIS":"6917.863","MEAN_MOTION_DOT":"0.00002923","INCLINATION":"53.2164","ECCENTRICITY":"0.00009100","REV_AT_EPOCH":"8295","NORAD_CAT_ID":"50832","APOAPSIS":"540.358","MEAN_MOTION_DDOT":"0.0000000000000","FILE":"3946031","PERIOD":"95.437","TIME_SYSTEM":"UTC","OBJECT_TYPE":"PAYLOAD","ARG_OF_PERICENTER":"91.4899","PERIAPSIS":"539.099","MEAN_ANOMALY":"268.6197","OBJECT_NAME":"STARLINK-3328","RCS_SIZE":"LARGE","MEAN_ELEMENT_THEORY":"SGP4","TLE_LINE2":"2 50832  53.2164 276.9434 0000910  91.4899 268.6197 15.08845592 82956","SITE":"AFETR","DECAY_DATE":null,"MEAN_MOTION":"15.08845592","ELEMENT_SET_NO":"999","OBJECT_ID":"2022-001AF","RA_OF_ASC_NODE":"276.9434","LAUNCH_DATE":"2022-01-06","EPHEMERIS_TYPE":"0","COUNTRY_CODE":"US","CENTER_NAME":"EARTH","REF_FRAME":"TEME","TLE_LINE1":"1 50832U 22001AF  23180.58410033  .00002923  00000-0  20163-3 0  9992","EPOCH":"2023-06-29T14:01:06.268512"},{"ELEMENT_SET_NO":"999","OBJECT_ID":"2022-001AG","LAUNCH_DATE":"2022-01-06","EPHEMERIS_TYPE":"0","RA_OF_ASC_NODE":"260.5693","COUNTRY_CODE":"US","CENTER_NAME":"EARTH","REF_FRAME":"TEME","TLE_LINE1":"1 50833U 22001AG  23180.47284044 -.00002045  00000-0 -89283-4 0  9998","EPOCH":"2023-06-29T11:20:53.414016","MEAN_ANOMALY":"276.4064","PERIAPSIS":"517.079","OBJECT_NAME":"STARLINK-3316","RCS_SIZE":"MEDIUM","MEAN_ELEMENT_THEORY":"SGP4","SITE":"AFETR","TLE_LINE2":"2 50833  53.2163 260.5693 0001156  83.7063 276.4064 15.16023161 83222","DECAY_DATE":null,"MEAN_MOTION":"15.16023161","MEAN_MOTION_DDOT":"0.0000000000000","FILE":"3945782","PERIOD":"94.985","OBJECT_TYPE":"PAYLOAD","TIME_SYSTEM":"UTC","ARG_OF_PERICENTER":"83.7063","CLASSIFICATION_TYPE":"U","BSTAR":"-0.00008928300000","GP_ID":"234625284","SEMIMAJOR_AXIS":"6896.011","INCLINATION":"53.2163","MEAN_MOTION_DOT":"-0.00002045","ECCENTRICITY":"0.00011560","REV_AT_EPOCH":"8322","NORAD_CAT_ID":"50833","APOAPSIS":"518.673"}];
